IRIDIUM 166             
1 43570U 18061B   24121.79466071  .00000722  00000+0  25085-3 0  9998
2 43570  86.4017  21.6141 0002152  78.5932 281.5506 14.34216159301979
IRIDIUM 158             
1 43571U 18061C   24121.97224174  .00000028  00000+0  28188-5 0  9993
2 43571  86.4018  21.5494 0002040  86.6971 273.4458 14.34213434301968
IRIDIUM 165             
1 43572U 18061D   24121.78831656  .00000219  00000+0  71159-4 0  9999
2 43572  86.4019  21.6579 0001978  83.4112 276.7309 14.34216889301964
IRIDIUM 155             
1 43573U 18061E   24121.95956146  .00000520  00000+0  17877-3 0  9992
2 43573  86.4015  21.4937 0002255  80.4822 279.6629 14.34214674301957
IRIDIUM 154             
1 43574U 18061F   24121.80100226  .00000052  00000+0  11554-4 0  9994
2 43574  86.4017  21.6553 0002419  89.4749 270.6724 14.34216718301986
IRIDIUM 163             
1 43575U 18061G   24121.78197183  .00000387  00000+0  13129-3 0  9990
2 43575  86.4015  21.6031 0002256  85.5008 274.6445 14.34215162301953
IRIDIUM 156             
1 43576U 18061H   24121.96590797  .00000490  00000+0  16794-3 0  9995
2 43576  86.4017  21.5325 0002132  82.8149 277.3289 14.34218942301977
IRIDIUM 164             
1 43577U 18061J   24121.80734292  .00000143  00000+0  43935-4 0  9992
2 43577  86.4015  21.6268 0002117  93.2536 266.8901 14.34215450301999
